NORAD_CAT_ID,OBJECT_NAME,OBJECT_TYPE,EPOCH,MEAN_MOTION,ECCENTRICITY,INCLINATION,RA_OF_ASC_NODE,ARG_OF_PERICENTER,MEAN_ANOMALY,BSTAR,MEAN_MOTION_DOT,MEAN_MOTION_DDOT,TLE_LINE0,TLE_LINE1,TLE_LINE2,SEMIMAJOR_AXIS,PERIOD,APOGEE,PERIGEE,DECAYED
52538.0,STARLINK-3933,PAYLOAD,2024-04-01 02:51:14,15.0884951,0.0001539,53.2187,65.5267,88.2052,271.9117,7.7299e-05,9.43e-06,0.0,0 STARLINK-3933,1 52538U 22051F   24092.11892278  .00000943  00000-0  77299-4 0  9992,2 52538  53.2187  65.5267 0001539  88.2052 271.9117 15.08849510104694,6917.851,95.437,540.781,538.652,0.0
52538.0,STARLINK-3933,PAYLOAD,2024-04-01 07:37:24,15.08851687,0.0001493,53.218,64.6342,89.1402,270.9761,0.00010348,1.36e-05,0.0,0 STARLINK-3933,1 52538U 22051F   24092.31764000  .00001360  00000-0  10348-3 0  9990,2 52538  53.2180  64.6342 0001493  89.1402 270.9761 15.08851687104657,6917.845,95.437,540.743,538.677,0.0
52538.0,STARLINK-3933,PAYLOAD,2024-04-01 21:55:52,15.08842388,0.0001645,53.2185,61.9575,98.9522,261.1656,0.00013353,1.838e-05,0.0,0 STARLINK-3933,1 52538U 22051F   24092.91380410  .00001838  00000-0  13353-3 0  9994,2 52538  53.2185  61.9575 0001645  98.9522 261.1656 15.08842388104811,6917.873,95.437,540.876,538.6,0.0
52538.0,STARLINK-3933,PAYLOAD,2024-04-02 07:28:11,15.08849614,0.0001365,53.2173,60.1751,105.2522,254.8621,0.00013974,1.937e-05,0.0,0 STARLINK-3933,1 52538U 22051F   24093.31123849  .00001937  00000-0  13974-3 0  9999,2 52538  53.2173  60.1751 0001365 105.2522 254.8621 15.08849614104805,6917.851,95.437,540.66,538.772,0.0
52538.0,STARLINK-3933,PAYLOAD,2024-04-02 21:46:39,15.08836546,0.0001332,53.2191,57.5006,88.886,271.2285,-4.6965e-05,-1.035e-05,0.0,0 STARLINK-3933,1 52538U 22051F   24093.90740655 -.00001035  00000-0 -46965-4 0  9992,2 52538  53.2191  57.5006 0001332  88.8860 271.2285 15.08836546104969,6917.891,95.438,540.677,538.834,0.0
52538.0,STARLINK-3933,PAYLOAD,2024-04-03 07:18:58,15.08839315,0.0001379,53.2181,55.7143,104.4927,255.6218,4.2201e-05,3.84e-06,0.0,0 STARLINK-3933,1 52538U 22051F   24094.30484575  .00000384  00000-0  42201-4 0  9996,2 52538  53.2181  55.7143 0001379 104.4927 255.6218 15.08839315104958,6917.882,95.438,540.701,538.794,0.0
52538.0,STARLINK-3933,PAYLOAD,2024-04-04 03:58:59,15.08838562,0.0001258,53.2183,51.8494,94.1919,265.9217,4.8775e-05,4.88e-06,0.0,0 STARLINK-3933,1 52538U 22051F   24095.16596740  .00000488  00000-0  48775-4 0  9996,2 52538  53.2183  51.8494 0001258  94.1919 265.9217 15.08838562105157,6917.885,95.438,540.62,538.88,0.0
52538.0,STARLINK-3933,PAYLOAD,2024-04-04 13:31:18,15.08841499,0.0001246,53.2185,50.0654,91.349,268.7644,2.2855e-05,7.6e-07,0.0,0 STARLINK-3933,1 52538U 22051F   24095.56340613  .00000076  00000-0  22855-4 0  9990,2 52538  53.2185  50.0654 0001246  91.3490 268.7644 15.08841499105145,6917.876,95.437,540.603,538.879,0.0
52538.0,STARLINK-3933,PAYLOAD,2024-04-05 03:49:46,15.08845051,0.0001265,53.2178,47.3905,91.7985,268.3152,0.0001769,2.529e-05,0.0,0 STARLINK-3933,1 52538U 22051F   24096.15956268  .00002529  00000-0  17690-3 0  9990,2 52538  53.2178  47.3905 0001265  91.7985 268.3152 15.08845051105305,6917.865,95.437,540.605,538.855,0.0
52538.0,STARLINK-3933,PAYLOAD,2024-04-05 19:43:38,15.08838845,0.0001438,53.2179,44.4195,103.5997,256.5155,0.00011421,1.53e-05,0.0,0 STARLINK-3933,1 52538U 22051F   24096.82196778  .00001530  00000-0  11421-3 0  9993,2 52538  53.2179  44.4195 0001438 103.5997 256.5155 15.08838845105408,6917.884,95.438,540.744,538.754,0.0
52538.0,STARLINK-3933,PAYLOAD,2024-04-06 13:12:52,15.08838854,0.000128,53.2178,41.1454,91.2153,268.8985,5.6451e-05,6.11e-06,0.0,0 STARLINK-3933,1 52538U 22051F   24097.55061009  .00000611  00000-0  56451-4 0  9994,2 52538  53.2178  41.1454 0001280  91.2153 268.8985 15.08838854105442,6917.884,95.438,540.634,538.863,0.0
52538.0,STARLINK-3933,PAYLOAD,2024-04-06 19:34:25,15.08839117,0.0001221,53.2175,39.9557,94.0679,266.0453,6.6165e-05,7.65e-06,0.0,0 STARLINK-3933,1 52538U 22051F   24097.81556956  .00000765  00000-0  66165-4 0  9996,2 52538  53.2175  39.9557 0001221  94.0679 266.0453 15.08839117105484,6917.883,95.438,540.593,538.903,0.0
52538.0,STARLINK-3933,PAYLOAD,2024-04-07 05:06:43,15.08848513,0.0001334,53.2183,38.1724,102.1101,258.0041,4.2628e-05,3.91e-06,0.0,0 STARLINK-3933,1 52538U 22051F   24098.21300441  .00000391  00000-0  42628-4 0  9990,2 52538  53.2183  38.1724 0001334 102.1101 258.0041 15.08848513105547,6917.854,95.437,540.642,538.797,0.0
52538.0,STARLINK-3933,PAYLOAD,2024-04-08 04:57:31,15.08840963,0.0001593,53.2194,33.7117,82.8389,277.2784,5.5258e-05,5.92e-06,0.0,0 STARLINK-3933,1 52538U 22051F   24099.20661242  .00000592  00000-0  55258-4 0  9995,2 52538  53.2194  33.7117 0001593  82.8389 277.2784 15.08840963105767,6917.877,95.437,540.844,538.64,0.0
52538.0,STARLINK-3933,PAYLOAD,2024-04-08 12:54:26,15.08841389,0.0001554,53.2195,32.2251,86.333,273.784,6.3903e-05,7.29e-06,0.0,0 STARLINK-3933,1 52538U 22051F   24099.53781191  .00000729  00000-0  63903-4 0  9995,2 52538  53.2195  32.2251 0001554  86.3330 273.7840 15.08841389105748,6917.876,95.437,540.816,538.666,0.0
52538.0,STARLINK-3933,PAYLOAD,2024-04-09 00:02:08,15.08840132,0.0001511,53.2197,30.1444,85.1805,274.936,0.00023939,3.524e-05,0.0,0 STARLINK-3933,1 52538U 22051F   24100.00148926  .00003524  00000-0  23939-3 0  9993,2 52538  53.2197  30.1444 0001511  85.1805 274.9360 15.08840132105811,6917.88,95.438,540.79,538.7,0.0
52538.0,STARLINK-3933,PAYLOAD,2024-04-09 04:48:17,15.08853213,0.0001378,53.2186,29.2487,94.6603,265.4546,0.00013602,1.878e-05,0.0,0 STARLINK-3933,1 52538U 22051F   24100.20020090  .00001878  00000-0  13602-3 0  9992,2 52538  53.2186  29.2487 0001378  94.6603 265.4546 15.08853213105913,6917.84,95.437,540.658,538.752,0.0
52538.0,STARLINK-3933,PAYLOAD,2024-04-09 12:45:13,15.08848913,0.0001294,53.2176,27.7655,89.2575,270.8566,9.3592e-05,1.202e-05,0.0,0 STARLINK-3933,1 52538U 22051F   24100.53140389  .00001202  00000-0  93592-4 0  9990,2 52538  53.2176  27.7655 0001294  89.2575 270.8566 15.08848913105965,6917.853,95.437,540.613,538.823,0.0
52538.0,STARLINK-3933,PAYLOAD,2024-04-10 04:39:05,15.08842941,0.000137,53.2187,24.7897,97.1597,262.9551,7.5179e-05,9.09e-06,0.0,0 STARLINK-3933,1 52538U 22051F   24101.19380933  .00000909  00000-0  75179-4 0  9998,2 52538  53.2187  24.7897 0001370  97.1597 262.9551 15.08842941106062,6917.871,95.437,540.684,538.789,0.0
52538.0,STARLINK-3933,PAYLOAD,2024-04-10 22:08:19,15.08839416,0.0001454,53.2185,21.5176,103.4691,256.6463,-1.2307e-05,-4.84e-06,0.0,0 STARLINK-3933,1 52538U 22051F   24101.92245369 -.00000484  00000-0 -12307-4 0  9996,2 52538  53.2185  21.5176 0001454 103.4691 256.6463 15.08839416106104,6917.882,95.438,540.753,538.741,0.0
52538.0,STARLINK-3933,PAYLOAD,2024-04-11 04:29:52,15.0884447,0.0001506,53.2197,20.3273,105.9885,254.1273,-5.0568e-05,-1.093e-05,0.0,0 STARLINK-3933,1 52538U 22051F   24102.18741089 -.00001093  00000-0 -50568-4 0  9993,2 52538  53.2197  20.3273 0001506 105.9885 254.1273 15.08844470106144,6917.867,95.437,540.774,538.69,0.0
52538.0,STARLINK-3933,PAYLOAD,2024-04-11 21:59:06,15.08837792,0.0001543,53.2194,17.0564,110.8098,249.3059,7.0134e-05,8.28e-06,0.0,0 STARLINK-3933,1 52538U 22051F   24102.91605287  .00000828  00000-0  70134-4 0  9997,2 52538  53.2194  17.0564 0001543 110.8098 249.3059 15.08837792106258,6917.887,95.438,540.82,538.685,0.0
52538.0,STARLINK-3933,PAYLOAD,2024-04-12 01:09:53,15.08840986,0.000126,53.2192,16.4644,89.7409,270.3728,0.00012937,1.772e-05,0.0,0 STARLINK-3933,1 52538U 22051F   24103.04853050  .00001772  00000-0  12937-3 0  9990,2 52538  53.2192  16.4644 0001260  89.7409 270.3728 15.08840986106272,6917.877,95.437,540.614,538.871,0.0
52538.0,STARLINK-3933,PAYLOAD,2024-04-12 21:49:54,15.0883878,0.0001371,53.2193,12.6001,94.0923,266.0226,6.578e-05,7.59e-06,0.0,0 STARLINK-3933,1 52538U 22051F   24103.90965567  .00000759  00000-0  65780-4 0  9991,2 52538  53.2193  12.6001 0001371  94.0923 266.0226 15.08838780106400,6917.884,95.438,540.698,538.801,0.0
52538.0,STARLINK-3933,PAYLOAD,2024-04-13 02:36:03,15.08845995,0.0001522,53.2202,11.7126,103.9322,256.1839,0.00011246,1.503e-05,0.0,0 STARLINK-3933,1 52538U 22051F   24104.10836992  .00001503  00000-0  11246-3 0  9998,2 52538  53.2202  11.7126 0001522 103.9322 256.1839 15.08845995106507,6917.862,95.437,540.78,538.674,0.0
52538.0,STARLINK-3933,PAYLOAD,2024-04-13 21:40:41,15.08841928,0.0001693,53.2202,8.1398,91.3387,268.7799,1.3123e-05,-7.9e-07,0.0,0 STARLINK-3933,1 52538U 22051F   24104.90325666 -.00000079  00000-0  13123-4 0  9992,2 52538  53.2202   8.1398 0001693  91.3387 268.7799 15.08841928106627,6917.874,95.437,540.911,538.568,0.0
52538.0,STARLINK-3933,PAYLOAD,2024-04-14 21:31:28,15.08842767,0.0001613,53.2201,3.6771,73.8178,286.2991,-3.0269e-07,-2.93e-06,0.0,0 STARLINK-3933,1 52538U 22051F   24105.89685969 -.00000293  00000-0 -30269-6 0  9997,2 52538  53.2201   3.6771 0001613  73.8178 286.2991 15.08842767106706,6917.872,95.437,540.853,538.621,0.0
52538.0,STARLINK-3933,PAYLOAD,2024-04-15 02:17:37,15.08849525,0.0001727,53.2201,2.7877,77.8197,282.2989,7.0134e-05,8.29e-06,0.0,0 STARLINK-3933,1 52538U 22051F   24106.09557307  .00000829  00000-0  70134-4 0  9990,2 52538  53.2201   2.7877 0001727  77.8197 282.2989 15.08849525106807,6917.851,95.437,540.911,538.522,0.0
52538.0,STARLINK-3933,PAYLOAD,2024-04-15 21:22:15,15.08841956,0.0001621,53.2196,359.2192,79.6636,280.4539,5.5944e-05,6.02e-06,0.0,0 STARLINK-3933,1 52538U 22051F   24106.89045978  .00000602  00000-0  55944-4 0  9995,2 52538  53.2196 359.2192 0001621  79.6636 280.4539 15.08841956106925,6917.874,95.437,540.861,538.618,0.0
52538.0,STARLINK-3933,PAYLOAD,2024-04-16 00:33:01,15.08853482,0.0001755,53.22,358.6227,62.6385,297.4786,0.0002009,2.912e-05,0.0,0 STARLINK-3933,1 52538U 22051F   24107.02292974  .00002912  00000-0  20090-3 0  9990,2 52538  53.2200 358.6227 0001755  62.6385 297.4786 15.08853482106945,6917.839,95.437,540.918,538.49,0.0
